ASTROCAST-0401          
1 55110U 23001DF  26068.71172895  .00009750  00000+0  37868-3 0  9995
2 55110  97.5547 160.5206 0008142 188.4231 171.6872 15.26258462176022
STARLINK-36549          
1 67510U 26012T   26068.08057952  .00022153  00000+0  81221-3 0  9997
2 67510  42.9999 317.3954 0001563 262.2929  97.7745 15.27576100  7675
